GLOBALSTAR M068         
1 32266U 07048D   24288.32052545 -.00000004  00000+0  55489-3 0  9996
2 32266  51.9904 331.7313 0000621 331.6348 126.6670 12.62803430786498
GLOBALSTAR M079         
1 37188U 10054A   24288.87406024 -.00000073  00000+0  17290-3 0  9994
2 37188  52.0022 166.5606 0001120  83.5980  18.5366 12.62265837645474
GLOBALSTAR M074         
1 37189U 10054B   24288.19851882 -.00000064  00000+0  22294-3 0  9996
2 37189  52.0002 167.9734 0000699  82.2821  71.4474 12.62257637645994
GLOBALSTAR M076         
1 37190U 10054C   24288.84674640 -.00000061  00000+0  23748-3 0  9997
2 37190  52.0016 166.1555 0000907  98.5961 357.7934 12.62271771645794
GLOBALSTAR M077         
1 37191U 10054D   24288.83915848 -.00000066  00000+0  21174-3 0  9991
2 37191  52.0053 122.9611 0000907  88.6913  34.3070 12.62265607646168
GLOBALSTAR M075         
1 37192U 10054E   24288.84740316 -.00000079  00000+0  13930-3 0  9994
2 37192  51.9939 208.5429 0000594  72.4126 329.0355 12.62267370644861
GLOBALSTAR M073         
1 37193U 10054F   24288.86736199 -.00000066  00000+0  20946-3 0  9992
2 37193  52.0037 122.1135 0000949  98.9281  32.8261 12.62271323646856
GLOBALSTAR M083         
1 37739U 11033A   24288.87459169 -.00000072  00000+0  17604-3 0  9990
2 37739  51.9858  71.1555 0000950  91.4597  13.7108 12.62266309615874
GLOBALSTAR M088         
1 37740U 11033B   24288.62401645 -.00000058  00000+0  25776-3 0  9994
2 37740  51.9750 337.6196 0000518  89.8979  77.0732 12.62263223611675
GLOBALSTAR M091         
1 37741U 11033C   24288.36640837 -.00000062  00000+0  23194-3 0  9991
2 37741  51.9996 301.5226 0000665  66.6213 307.2381 12.62268534612140
GLOBALSTAR M085         
1 37742U 11033D   24288.91090719 -.00000085  00000+0  10541-3 0  9998
2 37742  51.9856 251.1169 0000752  60.1437 330.5013 12.62267352612728
GLOBALSTAR M081         
1 37743U 11033E   24288.93821000 -.00000095  00000+0  46230-4 0  9992
2 37743  51.9950 253.6690 0000771  78.0593 316.9782 12.62270953612870
GLOBALSTAR M089         
1 37744U 11033F   24288.91515907 -.00000081  00000+0  12673-3 0  9995
2 37744  51.9923 208.0157 0000544  92.6147  15.9869 12.62270686613717
GLOBALSTAR M084         
1 38040U 11080A   24288.85912906 -.00000083  00000+0  11707-3 0  9999
2 38040  52.0006  75.3393 0000664 118.3485  36.2539 12.62268765591688
GLOBALSTAR M080         
1 38041U 11080B   24288.91502990 -.00000089  00000+0  80580-4 0  9997
2 38041  52.0057  76.6904 0000901 129.2976  39.1346 12.62267014591816
GLOBALSTAR M082         
1 38042U 11080C   24288.76918595 -.00000089  00000+0  83245-4 0  9994
2 38042  52.0097  32.5554 0000786  65.3764 100.1711 12.62267665592503
GLOBALSTAR M092         
1 38043U 11080D   24288.78844942 -.00000056  00000+0  26577-3 0  9999
2 38043  52.0065 122.8613 0000769  85.5161 287.7328 12.62267864590969
GLOBALSTAR M090         
1 38044U 11080E   24288.60385562 -.00000091  00000+0  74063-4 0  9992
2 38044  51.9912  27.1834 0000696  86.3273 287.7851 12.62268607592603
GLOBALSTAR M086         
1 38045U 11080F   24288.74104168 -.00000089  00000+0  84725-4 0  9992
2 38045  51.9922  27.2968 0001514 124.2994  34.1199 12.62268289592566
GLOBALSTAR M097         
1 39072U 13005A   24288.73298802 -.00000065  00000+0  21619-3 0  9996
2 39072  52.0050 301.6239 0000673  82.1611 277.9332 12.62271882539812
GLOBALSTAR M093         
1 39073U 13005B   24288.70619461 -.00000066  00000+0  21167-3 0  9991
2 39073  51.9810 295.3983 0000701  75.5453 284.5492 12.62265625539765
GLOBALSTAR M094         
1 39074U 13005C   24288.86457899 -.00000095  00000+0  48464-4 0  9996
2 39074  51.9947 209.0513 0000984  71.3123 288.7850 12.62269442541396
GLOBALSTAR M096         
1 39075U 13005D   24288.87777280 -.00000091  00000+0  72528-4 0  9991
2 39075  52.0063 257.3343 0000842  66.2655 293.8300 12.62271585540668
GLOBALSTAR M078         
1 39076U 13005E   24288.53432644 -.00000002  00000+0  56511-3 0  9992
2 39076  51.9894 343.2228 0000980  24.7585 335.3329 12.62275225538890
GLOBALSTAR M095         
1 39077U 13005F   24288.48191490 -.00000054  00000+0  27521-3 0  9994
2 39077  51.9821 340.7041 0000863  59.9549 300.1403 12.62266188538741
GLOBALSTAR M087         
1 52888U 22064A   24288.81412372 -.00000038  00000+0  17131-3 0  9994
2 52888  51.9742 151.2432 0008813 312.4695  47.5460 13.37590014113531
